{"type": "FeatureCollection", "features": [ {"type": "Feature", "properties": {"norad_id": 41556, "name": "ZIYUAN 3-02 (ZY 3-02)", "group": "resource", "lat": 42.74636094135648, "lon": -99.44513710015656, "alt_km": 494.8479701020269, "timestamp": "2025-12-25T16:53:14.311240+00:00", "meta": {"OBJECT_NAME": "ZIYUAN 3-02 (ZY 3-02)", "OBJECT_ID": "2016-033A", "EPOCH": "2025-12-25T06:48:55.955808", "MEAN_MOTION": 15.21231137, "ECCENTRICITY": 0.00114485, "INCLINATION": 97.4024, "RA_OF_ASC_NODE": 73.2407, "ARG_OF_PERICENTER": 199.4078, "MEAN_ANOMALY": 160.6724, "EPHEMERIS_TYPE": 0, "CLASSIFICATION_TYPE": "U", "NORAD_CAT_ID": 41556, "ELEMENT_SET_NO": 999, "REV_AT_EPOCH": 53154, "BSTAR": 0.00036309939, "MEAN_MOTION_DOT": 8.053e-05, "MEAN_MOTION_DDOT": 0}, "tle": {"line1": "1 41556U 16033A   25359.28398097  .00008053  00000+0  36310-3 0  9995", "line2": "2 41556  97.4024  73.2407 0011448 199.4078 160.6724 15.21231137531548"}}, "geometry": {"type": "Point", "coordinates": [-99.44513710015656, 42.74636094135648]}}, {"type": "Feature", "properties": {"norad_id": 41599, "name": "CARTOSAT-2C", "group": "resource", "lat": -14.893376193187892, "lon": 58.82035824707907, "alt_km": 507.08686394562756, "timestamp": "2025-12-25T16:53:14.311254+00:00", "meta": {"OBJECT_NAME": "CARTOSAT-2C", "OBJECT_ID": "2016-040A", "EPOCH": "2025-12-25T05:53:16.436832", "MEAN_MOTION": 15.19228696, "ECCENTRICITY": 0.00106198, "INCLINATION": 97.4743, "RA_OF_ASC_NODE": 56.3659, "ARG_OF_PERICENTER": 23.4032, "MEAN_ANOMALY": 336.7684, "EPHEMERIS_TYPE": 0, "CLASSIFICATION_TYPE": "U", "NORAD_CAT_ID": 41599, "ELEMENT_SET_NO": 999, "REV_AT_EPOCH": 52730, "BSTAR": 0.00027795557, "MEAN_MOTION_DOT": 5.795e-05, "MEAN_MOTION_DDOT": 0}, "tle": {"line1": "1 41599U 16040A   25359.24532913  .00005795  00000+0  27796-3 0  9991", "line2": "2 41599  97.4743  56.3659 0010619  23.4032 336.7684 15.19228696527302"}}, "geometry": {"type": "Point", "coordinates": [58.82035824707907, -14.893376193187892]}}, {"type": "Feature", "properties": {"norad_id": 41601, "name": "SKYSAT-C1", "group": "resource", "lat": -50.926920217236116, "lon": 44.66624741826978, "alt_km": 473.7680880749058, "timestamp": "2025-12-25T16:53:14.311265+00:00", "meta": {"OBJECT_NAME": "SKYSAT-C1", "OBJECT_ID": "2016-040C", "EPOCH": "2025-12-25T01:26:37.321152", "MEAN_MOTION": 15.32807797, "ECCENTRICITY": 9.313e-05, "INCLINATION": 96.9806, "RA_OF_ASC_NODE": 35.379, "ARG_OF_PERICENTER": 322.4418, "MEAN_ANOMALY": 37.676, "EPHEMERIS_TYPE": 0, "CLASSIFICATION_TYPE": "U", "NORAD_CAT_ID": 41601, "ELEMENT_SET_NO": 999, "REV_AT_EPOCH": 53116, "BSTAR": 0.00032372766, "MEAN_MOTION_DOT": 0.00010188, "MEAN_MOTION_DDOT": 0}, "tle": {"line1": "1 41601U 16040C   25359.06015418  .00010188  00000+0  32373-3 0  9990", "line2": "2 41601  96.9806  35.3790 0000931 322.4418  37.6760 15.32807797531160"}}, "geometry": {"type": "Point", "coordinates": [44.66624741826978, -50.926920217236116]}}, {"type": "Feature", "properties": {"norad_id": 41603, "name": "LAPAN-A3", "group": "resource", "lat": 40.849727953142754, "lon": -9.436865925003314, "alt_km": 470.7831844536313, "timestamp": "2025-12-25T16:53:14.311276+00:00", "meta": {"OBJECT_NAME": "LAPAN-A3", "OBJECT_ID": "2016-040E", "EPOCH": "2025-12-25T07:18:00.369216", "MEAN_MOTION": 15.31653486, "ECCENTRICITY": 0.00086628, "INCLINATION": 97.1435, "RA_OF_ASC_NODE": 356.4038, "ARG_OF_PERICENTER": 281.5741, "MEAN_ANOMALY": 78.4529, "EPHEMERIS_TYPE": 0, "CLASSIFICATION_TYPE": "U", "NORAD_CAT_ID": 41603, "ELEMENT_SET_NO": 999, "REV_AT_EPOCH": 52818, "BSTAR": 0.00015581572, "MEAN_MOTION_DOT": 4.692e-05, "MEAN_MOTION_DDOT": 0}, "tle": {"line1": "1 41603U 16040E   25359.30417094  .00004692  00000+0  15582-3 0  9991", "line2": "2 41603  97.1435 356.4038 0008662 281.5741  78.4529 15.31653486528185"}}, "geometry": {"type": "Point", "coordinates": [-9.436865925003314, 40.849727953142754]}}, {"type": "Feature", "properties": {"norad_id": 41604, "name": "BIROS", "group": "resource", "lat": 10.106821687480261, "lon": -147.02838386602502, "alt_km": 288.3074162219036, "timestamp": "2025-12-25T16:53:14.311287+00:00", "meta": {"OBJECT_NAME": "BIROS", "OBJECT_ID": "2016-040F", "EPOCH": "2025-12-25T01:07:09.917184", "MEAN_MOTION": 15.94683958, "ECCENTRICITY": 0.00039046, "INCLINATION": 97.0657, "RA_OF_ASC_NODE": 31.0163, "ARG_OF_PERICENTER": 124.4663, "MEAN_ANOMALY": 235.6982, "EPHEMERIS_TYPE": 0, "CLASSIFICATION_TYPE": "U", "NORAD_CAT_ID": 41604, "ELEMENT_SET_NO": 999, "REV_AT_EPOCH": 53068, "BSTAR": 0.0006151692, "MEAN_MOTION_DOT": 0.00232464, "MEAN_MOTION_DDOT": 2.2718232e-05}, "tle": {"line1": "1 41604U 16040F   25359.04664256  .00232464  22718-4  61517-3 0  9991", "line2": "2 41604  97.0657  31.0163 0003904 124.4663 235.6982 15.94683958530682"}}, "geometry": {"type": "Point", "coordinates": [-147.02838386602502, 10.106821687480261]}}, {"type": "Feature", "properties": {"norad_id": 41727, "name": "GAOFEN-3", "group": "resource", "lat": -25.68966535885509, "lon": 9.169705921582471, "alt_km": 756.6617725891756, "timestamp": "2025-12-25T16:53:14.311297+00:00", "meta": {"OBJECT_NAME": "GAOFEN-3", "OBJECT_ID": "2016-049A", "EPOCH": "2025-12-25T07:01:01.613856", "MEAN_MOTION": 14.42217077, "ECCENTRICITY": 0.00010994, "INCLINATION": 98.4036, "RA_OF_ASC_NODE": 4.6869, "ARG_OF_PERICENTER": 55.1491, "MEAN_ANOMALY": 304.9802, "EPHEMERIS_TYPE": 0, "CLASSIFICATION_TYPE": "U", "NORAD_CAT_ID": 41727, "ELEMENT_SET_NO": 999, "REV_AT_EPOCH": 49358, "BSTAR": 8.1458993e-05, "MEAN_MOTION_DOT": 2.25e-06, "MEAN_MOTION_DDOT": 0}, "tle": {"line1": "1 41727U 16049A   25359.29237979  .00000225  00000+0  81459-4 0  9992", "line2": "2 41727  98.4036   4.6869 0001099  55.1491 304.9802 14.42217077493580"}}, "geometry": {"type": "Point", "coordinates": [9.169705921582471, -25.68966535885509]}}, {"type": "Feature", "properties": {"norad_id": 41771, "name": "SKYSAT-C4", "group": "resource", "lat": -22.944858155585912, "lon": 27.216335645073805, "alt_km": 445.3694772362651, "timestamp": "2025-12-25T16:53:14.311308+00:00", "meta": {"OBJECT_NAME": "SKYSAT-C4", "OBJECT_ID": "2016-058B", "EPOCH": "2025-12-25T02:58:33.098880", "MEAN_MOTION": 15.42597663, "ECCENTRICITY": 0.00025562, "INCLINATION": 96.9362, "RA_OF_ASC_NODE": 23.7104, "ARG_OF_PERICENTER": 123.3164, "MEAN_ANOMALY": 236.833, "EPHEMERIS_TYPE": 0, "CLASSIFICATION_TYPE": "U", "NORAD_CAT_ID": 41771, "ELEMENT_SET_NO": 999, "REV_AT_EPOCH": 51858, "BSTAR": 0.00036070781, "MEAN_MOTION_DOT": 0.00015617, "MEAN_MOTION_DDOT": 0}, "tle": {"line1": "1 41771U 16058B   25359.12399420  .00015617  00000+0  36071-3 0  9993", "line2": "2 41771  96.9362  23.7104 0002556 123.3164 236.8330 15.42597663518582"}}, "geometry": {"type": "Point", "coordinates": [27.216335645073805, -22.944858155585912]}}, {"type": "Feature", "properties": {"norad_id": 41772, "name": "SKYSAT-C5", "group": "resource", "lat": -42.525735142865635, "lon": -143.62708293859797, "alt_km": 467.58199297990905, "timestamp": "2025-12-25T16:53:14.311318+00:00", "meta": {"OBJECT_NAME": "SKYSAT-C5", "OBJECT_ID": "2016-058C", "EPOCH": "2025-12-25T01:49:46.552800", "MEAN_MOTION": 15.3409486, "ECCENTRICITY": 0.0003967, "INCLINATION": 97.0737, "RA_OF_ASC_NODE": 42.3114, "ARG_OF_PERICENTER": 231.5105, "MEAN_ANOMALY": 128.5783, "EPHEMERIS_TYPE": 0, "CLASSIFICATION_TYPE": "U", "NORAD_CAT_ID": 41772, "ELEMENT_SET_NO": 999, "REV_AT_EPOCH": 51705, "BSTAR": 0.00031270755, "MEAN_MOTION_DOT": 0.00010248, "MEAN_MOTION_DDOT": 0}, "tle": {"line1": "1 41772U 16058C   25359.07623325  .00010248  00000+0  31271-3 0  9994", "line2": "2 41772  97.0737  42.3114 0003967 231.5105 128.5783 15.34094860517055"}}, "geometry": {"type": "Point", "coordinates": [-143.62708293859797, -42.525735142865635]}}, {"type": "Feature", "properties": {"norad_id": 41773, "name": "SKYSAT-C2", "group": "resource", "lat": 27.738845752391054, "lon": 19.95805449573661, "alt_km": 450.69005900776756, "timestamp": "2025-12-25T16:53:14.311329+00:00", "meta": {"OBJECT_NAME": "SKYSAT-C2", "OBJECT_ID": "2016-058D", "EPOCH": "2025-12-25T01:08:47.943168", "MEAN_MOTION": 15.37542437, "ECCENTRICITY": 0.00027847, "INCLINATION": 97.0351, "RA_OF_ASC_NODE": 23.0533, "ARG_OF_PERICENTER": 357.0422, "MEAN_ANOMALY": 3.0807, "EPHEMERIS_TYPE": 0, "CLASSIFICATION_TYPE": "U", "NORAD_CAT_ID": 41773, "ELEMENT_SET_NO": 999, "REV_AT_EPOCH": 51825, "BSTAR": 0.00032233433, "MEAN_MOTION_DOT": 0.00011801, "MEAN_MOTION_DDOT": 0}, "tle": {"line1": "1 41773U 16058D   25359.04777712  .00011801  00000+0  32233-3 0  9997", "line2": "2 41773  97.0351  23.0533 0002784 357.0422   3.0807 15.37542437518259"}}, "geometry": {"type": "Point", "coordinates": [19.95805449573661, 27.738845752391054]}}, {"type": "Feature", "properties": {"norad_id": 41774, "name": "SKYSAT-C3", "group": "resource", "lat": -12.540886422327317, "lon": -148.70202666639963, "alt_km": 436.38669809844396, "timestamp": "2025-12-25T16:53:14.311338+00:00", "meta": {"OBJECT_NAME": "SKYSAT-C3", "OBJECT_ID": "2016-058E", "EPOCH": "2025-12-25T00:30:39.324672", "MEAN_MOTION": 15.44829659, "ECCENTRICITY": 0.00021115, "INCLINATION": 96.9281, "RA_OF_ASC_NODE": 32.197, "ARG_OF_PERICENTER": 105.7849, "MEAN_ANOMALY": 254.3634, "EPHEMERIS_TYPE": 0, "CLASSIFICATION_TYPE": "U", "NORAD_CAT_ID": 41774, "ELEMENT_SET_NO": 999, "REV_AT_EPOCH": 51915, "BSTAR": 0.00043161699, "MEAN_MOTION_DOT": 0.00020176, "MEAN_MOTION_DDOT": 0}, "tle": {"line1": "1 41774U 16058E   25359.02128848  .00020176  00000+0  43162-3 0  9994", "line2": "2 41774  96.9281  32.1970 0002111 105.7849 254.3634 15.44829659519152"}}, "geometry": {"type": "Point", "coordinates": [-148.70202666639963, -12.540886422327317]}}]}